start=new Date('2022-05-28T00:00:00.000Z').valueOf();
sats=[{"ARG_OF_PERICENTER":"80.2065","COUNTRY_CODE":"US","RCS_SIZE":"LARGE","BSTAR":"0.00004996100000","APOAPSIS":"548.274","MEAN_ELEMENT_THEORY":"SGP4","TLE_LINE2":"2 45772  53.0546 279.9149 0001473  80.2065 279.9090 15.06386982108482","DECAY_DATE":null,"LAUNCH_DATE":"2020-06-13","TIME_SYSTEM":"UTC","GP_ID":"204712665","MEAN_MOTION_DDOT":"0.0000000000000","ECCENTRICITY":"0.00014730","INCLINATION":"53.0546","EPHEMERIS_TYPE":"0","MEAN_MOTION_DOT":"0.00000463","FILE":"3468079","PERIOD":"95.593","OBJECT_NAME":"STARLINK-1470","REV_AT_EPOCH":"10848","CLASSIFICATION_TYPE":"U","EPOCH":"2022-05-27T20:27:59.192352","ELEMENT_SET_NO":"999","TLE_LINE1":"1 45772U 20038AU  22147.85276843  .00000463  00000-0  49961-4 0  9993","MEAN_MOTION":"15.06386982","OBJECT_ID":"2020-038AU","PERIAPSIS":"546.233","NORAD_CAT_ID":"45772","REF_FRAME":"TEME","SITE":"AFETR","MEAN_ANOMALY":"279.9090","CENTER_NAME":"EARTH","SEMIMAJOR_AXIS":"6925.388","OBJECT_TYPE":"PAYLOAD","RA_OF_ASC_NODE":"279.9149"},{"LAUNCH_DATE":"2020-06-13","DECAY_DATE":null,"MEAN_ELEMENT_THEORY":"SGP4","TLE_LINE2":"2 45773  53.0555 280.5618 0001621  69.4652 290.6511 15.06395222108461","APOAPSIS":"548.351","BSTAR":"0.00004540700000","RCS_SIZE":"LARGE","COUNTRY_CODE":"US","ARG_OF_PERICENTER":"69.4652","MEAN_MOTION_DOT":"0.00000395","EPHEMERIS_TYPE":"0","ECCENTRICITY":"0.00016210","INCLINATION":"53.0555","MEAN_MOTION_DDOT":"0.0000000000000","TIME_SYSTEM":"UTC","GP_ID":"204712915","NORAD_CAT_ID":"45773","REF_FRAME":"TEME","SITE":"AFETR","PERIAPSIS":"546.106","OBJECT_ID":"2020-038AV","MEAN_MOTION":"15.06395222","TLE_LINE1":"1 45773U 20038AV  22147.71268882  .00000395  00000-0  45407-4 0  9998","ELEMENT_SET_NO":"999","EPOCH":"2022-05-27T17:06:16.314048","CLASSIFICATION_TYPE":"U","REV_AT_EPOCH":"10846","FILE":"3468079","OBJECT_NAME":"STARLINK-1482","PERIOD":"95.592","RA_OF_ASC_NODE":"280.5618","OBJECT_TYPE":"PAYLOAD","SEMIMAJOR_AXIS":"6925.363","CENTER_NAME":"EARTH","MEAN_ANOMALY":"290.6511"},{"MEAN_MOTION_DDOT":"0.0000000000000","GP_ID":"204714163","TIME_SYSTEM":"UTC","ECCENTRICITY":"0.00016730","INCLINATION":"53.0571","MEAN_MOTION_DOT":"-0.00000722","EPHEMERIS_TYPE":"0","COUNTRY_CODE":"US","ARG_OF_PERICENTER":"66.7933","RCS_SIZE":"LARGE","TLE_LINE2":"2 45774  53.0571 280.6951 0001673  66.7933 293.3232 15.06382748108458","MEAN_ELEMENT_THEORY":"SGP4","BSTAR":"-0.00002956700000","APOAPSIS":"548.425","LAUNCH_DATE":"2020-06-13","DECAY_DATE":null,"CENTER_NAME":"EARTH","MEAN_ANOMALY":"293.3232","SEMIMAJOR_AXIS":"6925.401","OBJECT_TYPE":"PAYLOAD","RA_OF_ASC_NODE":"280.6951","REV_AT_EPOCH":"10845","PERIOD":"95.593","OBJECT_NAME":"STARLINK-1485","FILE":"3468079","EPOCH":"2022-05-27T16:23:49.957440","CLASSIFICATION_TYPE":"U","TLE_LINE1":"1 45774U 20038AW  22147.68321710 -.00000722  00000-0 -29567-4 0  9990","MEAN_MOTION":"15.06382748","ELEMENT_SET_NO":"999","REF_FRAME":"TEME","SITE":"AFETR","NORAD_CAT_ID":"45774","OBJECT_ID":"2020-038AW","PERIAPSIS":"546.108"},{"MEAN_MOTION":"15.06394255","TLE_LINE1":"1 45775U 20038AX  22147.68689878  .00001487  00000-0  11873-3 0  9990","ELEMENT_SET_NO":"999","PERIAPSIS":"546.165","OBJECT_ID":"2020-038AX","REF_FRAME":"TEME","SITE":"AFETR","NORAD_CAT_ID":"45775","OBJECT_NAME":"STARLINK-1488","PERIOD":"95.593","FILE":"3468079","REV_AT_EPOCH":"10846","CLASSIFICATION_TYPE":"U","EPOCH":"2022-05-27T16:29:08.054592","OBJECT_TYPE":"PAYLOAD","RA_OF_ASC_NODE":"280.6753","MEAN_ANOMALY":"285.5872","CENTER_NAME":"EARTH","SEMIMAJOR_AXIS":"6925.366","APOAPSIS":"548.297","BSTAR":"0.00011873000000","TLE_LINE2":"2 45775  53.0548 280.6753 0001539  74.5287 285.5872 15.06394255108463","MEAN_ELEMENT_THEORY":"SGP4","DECAY_DATE":null,"LAUNCH_DATE":"2020-06-13","ARG_OF_PERICENTER":"74.5287","COUNTRY_CODE":"US","RCS_SIZE":"LARGE","INCLINATION":"53.0548","ECCENTRICITY":"0.00015390","EPHEMERIS_TYPE":"0","MEAN_MOTION_DOT":"0.00001487","TIME_SYSTEM":"UTC","GP_ID":"204714407","MEAN_MOTION_DDOT":"0.0000000000000"},{"SITE":"AFETR","REF_FRAME":"TEME","NORAD_CAT_ID":"45776","PERIAPSIS":"546.193","OBJECT_ID":"2020-038AY","TLE_LINE1":"1 45776U 20038AY  22147.62792362  .00001717  00000-0  13419-3 0  9992","MEAN_MOTION":"15.06390762","ELEMENT_SET_NO":"999","EPOCH":"2022-05-27T15:04:12.600768","CLASSIFICATION_TYPE":"U","REV_AT_EPOCH":"10845","PERIOD":"95.593","OBJECT_NAME":"STARLINK-1489","FILE":"3467585","RA_OF_ASC_NODE":"280.9301","OBJECT_TYPE":"PAYLOAD","SEMIMAJOR_AXIS":"6925.377","CENTER_NAME":"EARTH","MEAN_ANOMALY":"301.8118","LAUNCH_DATE":"2020-06-13","DECAY_DATE":null,"TLE_LINE2":"2 45776  53.0556 280.9301 0001514  58.3018 301.8118 15.06390762108453","MEAN_ELEMENT_THEORY":"SGP4","APOAPSIS":"548.290","BSTAR":"0.00013419000000","RCS_SIZE":"LARGE","COUNTRY_CODE":"US","ARG_OF_PERICENTER":"58.3018","MEAN_MOTION_DOT":"0.00001717","EPHEMERIS_TYPE":"0","INCLINATION":"53.0556","ECCENTRICITY":"0.00015140","MEAN_MOTION_DDOT":"0.0000000000000","TIME_SYSTEM":"UTC","GP_ID":"204677696"},{"OBJECT_TYPE":"PAYLOAD","RA_OF_ASC_NODE":"280.6671","CENTER_NAME":"EARTH","MEAN_ANOMALY":"296.6105","SEMIMAJOR_AXIS":"6925.369","ELEMENT_SET_NO":"999","TLE_LINE1":"1 45777U 20038AZ  22147.69058250 -.00002526  00000-0 -15077-3 0  9994","MEAN_MOTION":"15.06393260","NORAD_CAT_ID":"45777","SITE":"AFETR","REF_FRAME":"TEME","PERIAPSIS":"545.857","OBJECT_ID":"2020-038AZ","REV_AT_EPOCH":"10846","FILE":"3468079","OBJECT_NAME":"STARLINK-1490","PERIOD":"95.593","EPOCH":"2022-05-27T16:34:26.328000","CLASSIFICATION_TYPE":"U","INCLINATION":"53.0565","ECCENTRICITY":"0.00019890","MEAN_MOTION_DOT":"-0.00002526","EPHEMERIS_TYPE":"0","MEAN_MOTION_DDOT":"0.0000000000000","GP_ID":"204713415","TIME_SYSTEM":"UTC","MEAN_ELEMENT_THEORY":"SGP4","TLE_LINE2":"2 45777  53.0565 280.6671 0001989  63.5087 296.6105 15.06393260108465","APOAPSIS":"548.612","BSTAR":"-0.00015077000000","LAUNCH_DATE":"2020-06-13","DECAY_DATE":null,"COUNTRY_CODE":"US","ARG_OF_PERICENTER":"63.5087","RCS_SIZE":"LARGE"},{"CENTER_NAME":"EARTH","MEAN_ANOMALY":"263.4301","SEMIMAJOR_AXIS":"6925.349","OBJECT_TYPE":"PAYLOAD","RA_OF_ASC_NODE":"280.4360","REV_AT_EPOCH":"10845","FILE":"3468079","PERIOD":"95.592","OBJECT_NAME":"STARLINK-1491","EPOCH":"2022-05-27T17:43:26.189184","CLASSIFICATION_TYPE":"U","ELEMENT_SET_NO":"999","TLE_LINE1":"1 45778U 20038BA  22147.73849756 -.00000807  00000-0 -35306-4 0  9997","MEAN_MOTION":"15.06399933","NORAD_CAT_ID":"45778","REF_FRAME":"TEME","SITE":"AFETR","OBJECT_ID":"2020-038BA","PERIAPSIS":"546.089","MEAN_MOTION_DDOT":"0.0000000000000","TIME_SYSTEM":"UTC","GP_ID":"204713664","INCLINATION":"53.0561","ECCENTRICITY":"0.00016240","MEAN_MOTION_DOT":"-0.00000807","EPHEMERIS_TYPE":"0","COUNTRY_CODE":"US","ARG_OF_PERICENTER":"96.6873","RCS_SIZE":"LARGE","MEAN_ELEMENT_THEORY":"SGP4","TLE_LINE2":"2 45778  53.0561 280.4360 0001624  96.6873 263.4301 15.06399933108453","BSTAR":"-0.00003530600000","APOAPSIS":"548.338","LAUNCH_DATE":"2020-06-13","DECAY_DATE":null},{"MEAN_MOTION":"15.06385147","TLE_LINE1":"1 45779U 20038BB  22147.66847105  .00001047  00000-0  89216-4 0  9990","ELEMENT_SET_NO":"999","PERIAPSIS":"546.271","OBJECT_ID":"2020-038BB","SITE":"AFETR","REF_FRAME":"TEME","NORAD_CAT_ID":"45779","OBJECT_NAME":"STARLINK-1492","PERIOD":"95.593","FILE":"3468079","REV_AT_EPOCH":"10844","CLASSIFICATION_TYPE":"U","EPOCH":"2022-05-27T16:02:35.898720","OBJECT_TYPE":"PAYLOAD","RA_OF_ASC_NODE":"280.7453","MEAN_ANOMALY":"309.6668","CENTER_NAME":"EARTH","SEMIMAJOR_AXIS":"6925.394","APOAPSIS":"548.247","BSTAR":"0.00008921600000","TLE_LINE2":"2 45779  53.0557 280.7453 0001427  50.4447 309.6668 15.06385147108441","MEAN_ELEMENT_THEORY":"SGP4","DECAY_DATE":null,"LAUNCH_DATE":"2020-06-13","ARG_OF_PERICENTER":"50.4447","COUNTRY_CODE":"US","RCS_SIZE":"LARGE","INCLINATION":"53.0557","ECCENTRICITY":"0.00014270","EPHEMERIS_TYPE":"0","MEAN_MOTION_DOT":"0.00001047","GP_ID":"204713908","TIME_SYSTEM":"UTC","MEAN_MOTION_DDOT":"0.0000000000000"},{"MEAN_MOTION_DOT":"0.00000193","EPHEMERIS_TYPE":"0","ECCENTRICITY":"0.00014610","INCLINATION":"53.0531","MEAN_MOTION_DDOT":"0.0000000000000","GP_ID":"204712666","TIME_SYSTEM":"UTC","LAUNCH_DATE":"2020-06-13","DECAY_DATE":null,"TLE_LINE2":"2 45780  53.0531 280.1163 0001461  63.7813 296.3326 15.06398159108461","MEAN_ELEMENT_THEORY":"SGP4","APOAPSIS":"548.231","BSTAR":"0.00003185300000","RCS_SIZE":"LARGE","COUNTRY_CODE":"US","ARG_OF_PERICENTER":"63.7813","RA_OF_ASC_NODE":"280.1163","OBJECT_TYPE":"PAYLOAD","SEMIMAJOR_AXIS":"6925.354","CENTER_NAME":"EARTH","MEAN_ANOMALY":"296.3326","REF_FRAME":"TEME","SITE":"AFETR","NORAD_CAT_ID":"45780","PERIAPSIS":"546.207","OBJECT_ID":"2020-038BC","TLE_LINE1":"1 45780U 20038BC  22147.81220876  .00000193  00000-0  31853-4 0  9994","ELEMENT_SET_NO":"999","MEAN_MOTION":"15.06398159","EPOCH":"2022-05-27T19:29:34.836864","CLASSIFICATION_TYPE":"U","REV_AT_EPOCH":"10846","PERIOD":"95.592","OBJECT_NAME":"STARLINK-1496","FILE":"3468079"},{"CLASSIFICATION_TYPE":"U","EPOCH":"2022-05-27T20:06:45.627840","FILE":"3468079","OBJECT_NAME":"STARLINK-1497","PERIOD":"95.593","REV_AT_EPOCH":"10847","PERIAPSIS":"545.993","OBJECT_ID":"2020-038BD","NORAD_CAT_ID":"45781","REF_FRAME":"TEME","SITE":"AFETR","ELEMENT_SET_NO":"999","TLE_LINE1":"1 45781U 20038BD  22147.83802810  .00001599  00000-0  12628-3 0  9990","MEAN_MOTION":"15.06387940","SEMIMAJOR_AXIS":"6925.386","MEAN_ANOMALY":"300.8063","CENTER_NAME":"EARTH","RA_OF_ASC_NODE":"279.9963","OBJECT_TYPE":"PAYLOAD","RCS_SIZE":"LARGE","ARG_OF_PERICENTER":"59.3105","COUNTRY_CODE":"US","DECAY_DATE":null,"LAUNCH_DATE":"2020-06-13","APOAPSIS":"548.508","BSTAR":"0.00012628000000","MEAN_ELEMENT_THEORY":"SGP4","TLE_LINE2":"2 45781  53.0544 279.9963 0001816  59.3105 300.8063 15.06387940108475","GP_ID":"204712916","TIME_SYSTEM":"UTC","MEAN_MOTION_DDOT":"0.0000000000000","EPHEMERIS_TYPE":"0","MEAN_MOTION_DOT":"0.00001599","INCLINATION":"53.0544","ECCENTRICITY":"0.00018160"}];
